STARLINK-30818          
1 58217U 23170M   25155.62650750  .00006187  00000+0  47267-3 0  9995
2 58217  43.0026 266.6608 0001706 259.9007 100.1643 15.02535326 88474
STARLINK-30794          
1 58218U 23170N   25155.57999478  .00003209  00000+0  25249-3 0  9991
2 58218  43.0036 267.1516 0001548 263.3809  96.6857 15.02540071 88449
STARLINK-30835          
1 58219U 23170P   25155.61984679 -.00002363  00000+0 -15997-3 0  9995
2 58219  43.0032 266.6109 0001361 267.7073  92.3614 15.02527609 88358
STARLINK-30792          
1 58220U 23170Q   25155.61652462 -.00000997  00000+0 -58778-4 0  9995
2 58220  43.0022 266.5844 0000909 289.3307  70.7437 15.02524540 88478
STARLINK-30836          
1 58221U 23170R   25155.61319252 -.00002010  00000+0 -13384-3 0  9994
2 58221  43.0030 266.5595 0001091 274.0914  85.9804 15.02521955 88359
STARLINK-30855          
1 58222U 23170S   25155.59998542  .00002224  00000+0  17972-3 0  9999
2 58222  43.0038 267.3024 0001524 280.0490  80.0181 15.02525311 88355
STARLINK-30840          
1 58223U 23170T   25155.79605448 -.00018215  00000+0 -13341-2 0  9996
2 58223  43.0054 266.1917 0002417 258.9530 101.1041 15.02610246 88388
STARLINK-30875          
1 58224U 23170U   25155.62983560  .00006990  00000+0  53199-3 0  9994
2 58224  43.0009 266.6683 0001502 274.1069  85.9601 15.02534666 88411
STARLINK-30872          
1 58225U 23170V   25155.55804326 -.00000817  00000+0 -21407-4 0  9991
2 58225  43.0011 182.8756 0001344 272.8157  87.2540 15.25906934 89438
STARLINK-30865          
1 58226U 23170W   25155.77453025  .00002359  00000+0  18966-3 0  9998
2 58226  43.0032 255.0015 0001135 282.6209  77.4506 15.02525317 88505
STARLINK-30874          
1 58227U 23170X   25155.34406013 -.00001337  00000+0 -83892-4 0  9995
2 58227  43.0041 268.8239 0001322 285.7881  74.2815 15.02542802 88409
STARLINK-30871          
1 58228U 23170Y   25155.80606537  .00004306  00000+0  33368-3 0  9999
2 58228  43.0037 266.2714 0002673 262.6540  97.3999 15.02532607 87298
STARLINK-30861          
1 58230U 23171A   25154.93989353 -.00005822  00000+0 -41619-3 0  9990
2 58230  42.9966   0.7035 0001628 288.0230  72.0435 15.02545309 87797
STARLINK-30867          
1 58231U 23171B   25155.27562012 -.00002591  00000+0 -17684-3 0  9993
2 58231  43.0047 358.9238 0001566 249.3557 110.7118 15.02527937 87847
STARLINK-30880          
1 58232U 23171C   25155.27894793 -.00000461  00000+0 -19093-4 0  9999
2 58232  43.0053 358.9462 0001194 251.7066 108.3647 15.02527350 87842
STARLINK-30777          
1 58233U 23171D   25155.28559380  .00002126  00000+0  17242-3 0  9992
2 58233  43.0063 358.9946 0001155 273.3786  86.6924 15.02529664 87843
STARLINK-30860          
1 58234U 23171E   25155.28225947  .00000005  00000+0  15457-4 0  9993
2 58234  43.0032 358.9703 0001063 267.7806  92.2915 15.02534628 87848
STARLINK-30879          
1 58235U 23171F   25155.58335648  .00074972  00000+0  21556-2 0  9996
2 58235  42.9989 280.7468 0008707 338.1302  69.1119 15.34852235 88745
STARLINK-30853          
1 58236U 23171G   25155.82074338  .00000012  00000+0  15983-4 0  9993
2 58236  43.0051 356.1234 0001322 264.0392  96.0300 15.02529230 87942
STARLINK-30866          
1 58237U 23171H   25155.25895549 -.00000864  00000+0 -48918-4 0  9997
2 58237  43.0052 358.7874 0000725 300.3838  59.6933 15.02540012 87844
STARLINK-30817          
1 58238U 23171J   25155.29225227 -.00000791  00000+0 -43483-4 0  9993
2 58238  43.0024 359.0322 0001030 271.5242  88.5482 15.02531302 87846
STARLINK-30847          
1 58239U 23171K   25155.29559262 -.00000860  00000+0 -48621-4 0  9999
2 58239  43.0045 359.0628 0001235 265.1886  94.8815 15.02532205 87842
STARLINK-30848          
1 58240U 23171L   25154.97785200  .00001291  00000+0  11060-3 0  9991
2 58240  43.0041   1.8104 0001027 271.2638  88.8087 15.02543387 87783
STARLINK-30843          
1 58241U 23171M   25155.29891090 -.00002179  00000+0 -14628-3 0  9994
2 58241  43.0041 359.0732 0001205 237.9962 122.0763 15.02544010 87861
STARLINK-30877          
1 58242U 23171N   25155.86059791  .00002641  00000+0  21058-3 0  9999
2 58242  43.0057 355.5586 0001735 261.9184  98.1462 15.02519470 87959
STARLINK-30864          
1 58243U 23171P   25155.83728288 -.00000628  00000+0 -31436-4 0  9998
2 58243  43.0051 355.3963 0001203 267.5767  92.4938 15.02524509 87842
STARLINK-30854          
1 58244U 23171Q   25155.82876771  .00002654  00000+0  21157-3 0  9996
2 58244  43.0050 357.0331 0001190 259.8316 100.2392 15.02522419 87940
STARLINK-30849          
1 58245U 23171R   25155.84061009  .00000992  00000+0  88543-4 0  9995
2 58245  43.0065 355.4199 0002708 269.7009  90.3523 15.02522978 87941
STARLINK-30886          
1 58246U 23171S   25155.24896530 -.00001141  00000+0 -69409-4 0  9994
2 58246  43.0041 358.7168 0001226 262.5682  97.5021 15.02534648 87848
STARLINK-30850          
1 58247U 23171T   25155.84394438 -.00001015  00000+0 -60075-4 0  9991
2 58247  43.0032 355.4460 0000312 281.1655  78.9152 15.02530866 87790
STARLINK-30823          
1 58248U 23171U   25155.25230334  .00003431  00000+0  26896-3 0  9995
2 58248  43.0062 358.7414 0001090 266.1315  93.9403 15.02531554 87846
STARLINK-30873          
1 58249U 23171V   25155.85392619  .00002264  00000+0  18258-3 0  9993
2 58249  43.0043 355.5130 0001078 273.5553  86.5166 15.02547568 87956
STARLINK-30808          
1 58250U 23171W   25155.28372770  .00003239  00000+0  25486-3 0  9992
2 58250  43.0054   0.6547 0000849 252.8807 107.1943 15.02520426 87842
STARLINK-30881          
1 58251U 23171X   25155.83405281  .00001053  00000+0  92964-4 0  9996
2 58251  43.0033 356.1348 0000205 214.0914 145.9915 15.02533666 87886
STARLINK-30883          
1 58252U 23171Y   25155.26558651 -.00001127  00000+0 -68345-4 0  9994
2 58252  43.0022 358.8352 0000449 279.0412  81.0380 15.02550660 87848
STARLINK-30907          
1 58352U 23177B   25155.09174470 -.00005515  00000+0 -39336-3 0  9997
2 58352  43.0045  65.7283 0001412 246.2875 113.7820 15.02547065 86397
STARLINK-30896          
1 58353U 23177C   25155.76696885  .00002582  00000+0  10856-3 0  9996
2 58353  43.0003 337.1619 0001380 303.3499  56.7220 15.25892229 87258
STARLINK-30832          
1 58354U 23177D   25155.05399795  .00000218  00000+0  31224-4 0  9996
2 58354  43.0034  65.4491 0001143 266.3535  93.7177 15.02534044 86252
STARLINK-30903          
1 58355U 23177E   25155.43190291 -.00001395  00000+0 -88211-4 0  9996
2 58355  43.0048  63.9921 0001251 269.3611  90.7088 15.02533331 86354
STARLINK-30905          
1 58356U 23177F   25155.08729259  .00000393  00000+0  44131-4 0  9998
2 58356  43.0049  65.6698 0001321 255.3588 104.7107 15.02543476 86249
STARLINK-30842          
1 58357U 23177G   25155.40086972 -.00003898  00000+0 -27383-3 0  9997
2 58357  43.0066  49.9472 0001396 255.6791 104.3897 15.02510442 86514
STARLINK-30858          
1 58358U 23177H   25155.42523617  .00001847  00000+0  15175-3 0  9998
2 58358  43.0043  63.9399 0001259 263.8254  96.2445 15.02533964 86362
STARLINK-30878          
1 58359U 23177J   25155.44732343  .00003582  00000+0  28010-3 0  9999
2 58359  43.0032  63.2360 0001185 279.8942  80.1767 15.02537405 86364
STARLINK-30897          
1 58360U 23177K   25155.42856962 -.00003488  00000+0 -24315-3 0  9994
2 58360  43.0056  63.9670 0000972 263.9833  96.0898 15.02549820 86353
STARLINK-30885          
1 58361U 23177L   25155.15266669 -.00000653  00000+0 -33279-4 0  9995
2 58361  43.0050  65.3337 0001269 271.2042  88.8655 15.02533048 86320
STARLINK-30890          
1 58362U 23177M   25155.01638738 -.00000027  00000+0  13058-4 0  9998
2 58362  43.0044  66.0290 0001165 256.1767 103.8946 15.02540162 86248
STARLINK-30909          
1 58363U 23177N   25155.14822501 -.00000209  00000+0 -43245-6 0  9992
2 58363  43.0045  65.2988 0001096 259.6175 100.4543 15.02533347 86310
STARLINK-30904          
1 58364U 23177P   25155.01824067  .00000072  00000+0  20373-4 0  9999
2 58364  43.0042  64.3236 0000929 259.7366 100.3372 15.02541208 86315
STARLINK-30918          
1 58365U 23177Q   25155.47173362 -.00000383  00000+0 -13310-4 0  9995
2 58365  43.0043  63.4290 0001200 266.2491  93.8214 15.02536575 86369
STARLINK-30892          
1 58366U 23177R   25155.47501322 -.00030177  00000+0 -22210-2 0  9998
2 58366  43.0055  63.4494 0000955 301.2685  58.8064 15.02662670 86371
STARLINK-30891          
1 58367U 23177S   25155.46840481  .00001038  00000+0  91858-4 0  9998
2 58367  43.0064  63.3949 0000998 264.7839  95.2890 15.02548191 86303
STARLINK-30889          
1 58368U 23177T   25155.47063209  .00003794  00000+0  29574-3 0  9991
2 58368  43.0024  63.4195 0001015 259.3147 100.7581 15.02539639 86369
STARLINK-30870          
1 58369U 23177U   25155.46618005 -.00000789  00000+0 -43322-4 0  9992
2 58369  43.0024  63.3794 0001551 290.6459  69.4217 15.02546703 86360
STARLINK-30888          
1 58370U 23177V   25155.43744629 -.00003430  00000+0 -23909-3 0  9997
2 58370  43.0055  64.0149 0001023 270.0258  90.0467 15.02521820 86361
STARLINK-30859          
1 58371U 23177W   25155.42744710  .00001628  00000+0  13555-3 0  9999
2 58371  43.0055  63.9193 0001441 257.8846 102.1835 15.02536140 86364
STARLINK-30884          
1 58372U 23177X   25155.46062212  .00004865  00000+0  37468-3 0  9999
2 58372  43.0035  63.3342 0000792 108.0102 252.0827 15.02567608 86362
STARLINK-30852          
1 58373U 23177Y   25155.08951658 -.00006509  00000+0 -46686-3 0  9990
2 58373  43.0039  65.6826 0000880 287.1666  72.9080 15.02565617 86303
STARLINK-30911          
1 58374U 23178A   25155.44802733  .00001814  00000+0  73421-4 0  9991
2 58374  53.1602 213.3163 0001228  86.7664 273.3477 15.30176132 87282
STARLINK-30894          
1 58375U 23178B   25155.45857375  .00004416  00000+0  16123-3 0  9991
2 58375  53.1595 213.3833 0000846 118.9887 241.1199 15.30178972 87220
